0 CZ-2D DEB
1 38299U 10027D   13282.36883163  .00009297  00000-0  17259-2 0  2306
2 38299 097.8663 242.9548 0227095 048.7041 102.1403 14.50078895172339
0 CZ-2D DEB
1 38299U 10027D   13283.65134365  .00013655  00000-0  25243-2 0  2329
2 38299 097.8647 244.1505 0227093 044.8478 317.1317 14.50088446172523
0 CZ-2D DEB
1 38299U 10027D   13283.74225933  .00009643  00000-0  17896-2 0  2317
2 38299 097.8661 244.2390 0227011 044.4771 071.8382 14.50093800172531
0 CZ-2D DEB
1 38299U 10027D   13285.74326512  .00008068  00000-0  14991-2 0  2328
2 38299 097.8659 246.1103 0226795 038.3136 077.8466 14.50123335172824
0 CZ-2D DEB
1 38299U 10027D   13287.74431836  .00011529  00000-0  21370-2 0  2332
2 38299 097.8661 247.9815 0226568 032.1446 084.3237 14.50154735173110
0 CZ-2D DEB
1 38299U 10027D   13289.74519799  .00012695  00000-0  23514-2 0  2347
2 38299 097.8668 249.8525 0226318 025.9756 090.1669 14.50193850173400
0 CZ-2D DEB
1 38299U 10027D   13292.14813894  .00010606  00000-0  19663-2 0  2359
2 38299 097.8678 252.0997 0225964 018.5675 035.4028 14.50246738173746
0 CZ-2D DEB
1 38299U 10027D   13294.15066211  .00012747  00000-0  23603-2 0  2363
2 38299 097.8685 253.9729 0225695 012.3850 050.4902 14.50286802174043
0 CZ-2D DEB
1 38299U 10027D   13296.15141442  .00013478  00000-0  24945-2 0  2378
2 38299 097.8687 255.8449 0225392 006.1988 056.6430 14.50331051174335
